[{"OBJECT_NAME":"AL MUNTHER","OBJECT_ID":"2025-052AG","EPOCH":"2026-03-09T15:29:23.207136","MEAN_MOTION":15.28381521,"ECCENTRICITY":0.0008027,"INCLINATION":97.4001,"RA_OF_ASC_NODE":323.9152,"ARG_OF_PERICENTER":130.7043,"MEAN_ANOMALY":229.4895,"EPHEMERIS_TYPE":0,"CLASSIFICATION_TYPE":"U","NORAD_CAT_ID":63240,"ELEMENT_SET_NO":999,"REV_AT_EPOCH":5479,"BSTAR":0.00065015,"MEAN_MOTION_DOT":0.00017933,"MEAN_MOTION_DDOT":0},{"OBJECT_NAME":"STARLINK-34098","OBJECT_ID":"2025-107S","EPOCH":"2026-03-09T10:25:32.624832","MEAN_MOTION":15.27598783,"ECCENTRICITY":0.00020373,"INCLINATION":42.9976,"RA_OF_ASC_NODE":202.7882,"ARG_OF_PERICENTER":184.0291,"MEAN_ANOMALY":176.0544,"EPHEMERIS_TYPE":0,"CLASSIFICATION_TYPE":"U","NORAD_CAT_ID":64080,"ELEMENT_SET_NO":999,"REV_AT_EPOCH":4608,"BSTAR":0.0010459553,"MEAN_MOTION_DOT":0.00028649,"MEAN_MOTION_DDOT":0}]
